"PLACEKEY","PARENT_PLACEKEY","LOCATION_NAME","SAFEGRAPH_BRAND_IDS","BRANDS","STORE_ID","TOP_CATEGORY","SUB_CATEGORY","NAICS_CODE","LATITUDE","LONGITUDE","STREET_ADDRESS","CITY","REGION","POSTAL_CODE","ISO_COUNTRY_CODE","PHONE_NUMBER","OPEN_HOURS","CATEGORY_TAGS","OPENED_ON","CLOSED_ON","TRACKING_CLOSED_SINCE","GEOMETRY_TYPE","DOMAINS","WEBSITE"
"222-222@3bh-2b8-mhq","","Majestic View B&B","","","","Traveler Accommodation","Hotels (except Casino Hotels) and Motels",721110.0,59.669182,-151.496957,"1660 Race Rd","Homer","AK","99603","US",19072356413.0,"","Breakfast","","","2019-07","POLYGON","""[\\""majesticviewbb.com\\""]""","http://www.majesticviewbb.com"
"222-222@3bh-zsy-w8v","222-223@3bh-zsy-w8v","406 Sportsmans Lodge & Family Sports Cafe","","","","Restaurants and Other Eating Places","Full-Service Restaurants",722511.0,60.557805,-151.243232,"10800 Kenai Spur Hwy","Kenai","AK","99611","US",19072836101.0,"","American Food","","2022-03","2019-07","POLYGON","""[]""",""
"222-222@3bt-brp-r6k","","Michelle Johnson","","","","Offices of Physicians","Offices of Physicians, Mental Health Specialists",621112.0,61.182011,-149.719013,"4353 Rendezvous Cir","Anchorage","AK","99504","US",19077296319.0,"","","","","2019-07","POLYGON","""[]""",""
"222-222@3bt-by5-p35","","Architectural Supply Company","","","","Building Material and Supplies Dealers","",4441.0,61.187098,-149.894615,"3699 Springer St","Anchorage","AK","99503","US",19075611919.0,"{ ""Mon"": [[""8:30"", ""16:30""]], ""Tue"": [[""8:30"", ""16:30""]], ""Wed"": [[""8:30"", ""16:30""]], ""Thu"": [[""8:30"", ""16:30""]], ""Fri"": [[""8:30"", ""16:30""]], ""Sat"": [], ""Sun"": [] }","Hardware and Tools","","","2019-07","POLYGON","""[]""",""
"222-222@3bt-byd-jsq","","PCNET Communications Inc","","","","Electronics and Appliance Stores","Electronics Stores",443142.0,61.195917,-149.893041,"517 W Northern Lights Blvd","Anchorage","AK","99503","US",19076443965.0,"{ ""Mon"": [[""8:00"", ""17:00""]], ""Tue"": [[""8:00"", ""17:00""]], ""Wed"": [[""8:00"", ""17:00""]], ""Thu"": [[""8:00"", ""17:00""]], ""Fri"": [[""8:00"", ""17:00""]], ""Sat"": [], ""Sun"": [] }","IT Services,Security Systems","","","2019-07","POLYGON","""[\\""pcnetak.com\\""]""","https://pcnetak.com"
"222-222@3bt-fbk-3dv","","Hope Daisy Petal","","","","Continuing Care Retirement Communities and Assisted Living Facilities for the Elderly","Assisted Living Facilities for the Elderly",623312.0,61.618755,-149.491033,"3470 N Daisy Petal Cir","Wasilla","AK","99654","US",19075615335.0,"","Elder Care,Skilled Nursing","","","2019-07","POLYGON","""[]""",""
"222-222@3bt-gq2-y9z","","Mat Su Jewish Center","","","","Religious Organizations","Religious Organizations",813110.0,61.602635,-149.210802,"9530 E Horse Play Cir","Palmer","AK","99645","US",19073501787.0,"","","","","2019-07","POLYGON","""[\\""matsujewishcenter.org\\""]""",""
"222-222@3j9-r9z-sqz","","Miller The Mover Ltd","","","","Specialized Freight Trucking","Used Household and Office Goods Moving",484210.0,55.730982,-97.863729,"84 Berens Rd","Thompson","MB","R8N 1X2","CA",12047786988.0,"{ ""Mon"": [[""8:00"", ""16:30""]], ""Tue"": [[""8:00"", ""16:30""]], ""Wed"": [[""8:00"", ""16:30""]], ""Thu"": [[""8:00"", ""16:30""]], ""Fri"": [[""8:00"", ""16:30""]], ""Sat"": [], ""Sun"": [] }","Movers","","","2019-07","POLYGON","""[\\""millerthemover.ca\\""]""","http://www.millerthemover.ca"
"222-222@3j9-rb6-xqz","","Oak Ridge Meats","","","","Specialty Food Stores","Meat Markets",445210.0,55.726873,-97.868717,"88 Severn Cres","Thompson","MB","R8N 1M6","CA",12047786755.0,"","","","","2019-07","POLYGON","""[]""",""
"222-222@3js-n2g-n89","","North Centennial Manor","","","","Nursing Care Facilities (Skilled Nursing Facilities)","Nursing Care Facilities (Skilled Nursing Facilities)",623110.0,49.423991,-82.431174,"2 Kimberly Dr","Kapuskasing","ON","P5N 1L5","CA","","","","","","2019-07","POLYGON","""[]""",""
"222-222@3v7-hgn-bc5","","Grandview Chapel","","","","Religious Organizations","Religious Organizations",813110.0,55.769018,-120.22649,"900 94 Ave","Dawson Creek","BC","V1G 1G2","CA",12507824225.0,"","","","","2019-07","POLYGON","""[]""",""
"222-222@3v8-g9k-n3q","","The Magick Mirror","","","","Offices of Other Health Practitioners","Offices of All Other Miscellaneous Health Practitioners",621399.0,56.254527,-120.857237,"10903 106 St","Fort St. John","BC","V1J 4G2","CA",12502638989.0,"","Alternative Medicine,Naturopathic,Reiki","","","2019-07","POLYGON","""[\\""themagickmirror.net\\""]""","http://www.themagickmirror.net"
"222-222@3vs-mpz-jgk","224-223@3vs-mpv-xkf","OK Tire Stores","SG_BRAND_2db9cc48ee5e27be","OK Tire Stores",2019100.0,"Automotive Parts, Accessories, and Tire Stores","Automotive Parts and Accessories Stores",441310.0,56.722311,-111.37293,"9511 Franklin Ave","Fort Mcmurray","AB","T9H 3Z7","CA",17807430292.0,"{ ""Mon"": [[""8:00"", ""17:00""]], ""Tue"": [[""8:00"", ""17:00""]], ""Wed"": [[""8:00"", ""17:00""]], ""Thu"": [[""8:00"", ""17:00""]], ""Fri"": [[""8:00"", ""17:00""]], ""Sat"": [], ""Sun"": [] }","Auto Repair,Batteries,Tires,Transmission Repair,Wheel Rim Repair","","","2019-07","POLYGON","""[\\""oktire.com\\""]""",""
"222-222@3vs-npq-xdv","","Anzac Community School","","","","Elementary and Secondary Schools","Elementary and Secondary Schools",611110.0,56.448441,-111.047063,"112 Christina Dr","Anzac","AB","T0P 1J0","CA",17803342271.0,"","","","","2019-07","POLYGON","""[\\""anzacschool.ca\\""]""",""
"222-222@3vt-vgh-435","","Petro-Canada","SG_BRAND_478fdeabe681351e","Petro-Canada",78017.0,"Gasoline Stations","Gasoline Stations with Convenience Stores",447110.0,52.156628,-106.690974,"1215 Claypool Dr","Saskatoon","SK","S7R 0E4","CA",13062424023.0,"{ ""Mon"": [[""0:00"", ""24:00""]], ""Tue"": [[""0:00"", ""24:00""]], ""Wed"": [[""0:00"", ""24:00""]], ""Thu"": [[""0:00"", ""24:00""]], ""Fri"": [[""0:00"", ""24:00""]], ""Sat"": [[""0:00"", ""24:00""]], ""Sun"": [[""0:00"", ""24:00""]] }","Car Wash,Propane","2022-11","","2021-03","POLYGON","""[\\""petro-canada.ca\\""]""",""
"222-222@3w9-m9q-66k","","Studio 9","","","","Other Miscellaneous Store Retailers","Art Dealers",453920.0,54.311802,-130.325795,"515 3rd Ave W","Prince Rupert","BC","V8J 1L9","CA",12506242366.0,"","","","","2019-07","POLYGON","""[]""",""
"222-222@3wn-rp8-jn5","","Saik'Uz First Nation","","","","Other Ambulatory Health Care Services","All Other Miscellaneous Ambulatory Health Care Services",621999.0,53.94201,-124.102619,"716 Patrick St","Vanderhoof","BC","V0J 3A1","CA","","","","","","2019-07","POLYGON","""[]""",""
"222-222@3wn-x48-68v","","Nezul Be Hunuyeh Child and Family Services","","","","Printing and Related Support Activities","",3231.0,54.4464,-124.2631,"700 Stuart Dr W","Fort St. James","BC","V0J 1P0","CA","","{ ""Mon"": [[""8:00"", ""16:00""]], ""Tue"": [[""8:00"", ""16:00""]], ""Wed"": [[""8:00"", ""16:00""]], ""Thu"": [[""8:00"", ""16:00""]], ""Fri"": [[""8:00"", ""16:00""]], ""Sat"": [], ""Sun"": [] }","","","","2019-07","POLYGON","""[\\""nezulbehunuyeh.ca\\""]""","https://www.nezulbehunuyeh.ca"
"222-222@3wv-nxt-gx5","","Bush River Logging","","","","Other Specialty Trade Contractors","",2389.0,51.236265,-116.929797,"969 Jacob Rd","Golden","BC","V0A 1H2","CA",12503446253.0,"","Contractors","","","2019-07","POLYGON","""[]""",""
"222-222@3wx-xrh-5xq","","McDonald's","SG_BRAND_5179b21fc1d50950b99b4eecaa48c614","McDonald's",40575.0,"Restaurants and Other Eating Places","Limited-Service Restaurants",722513.0,49.671236,-112.905523,"5 Mauretania Rd W","Lethbridge","AB","T1J 5L4","CA",15874868620.0,"{ ""Mon"": [[""5:00"", ""23:59""]], ""Tue"": [[""5:00"", ""23:59""]], ""Wed"": [[""5:00"", ""23:59""]], ""Thu"": [[""5:00"", ""23:59""]], ""Fri"": [[""5:00"", ""23:59""]], ""Sat"": [[""5:00"", ""23:59""]], ""Sun"": [[""5:00"", ""23:59""]] }","Drive Through,Breakfast,Burgers,Counter Service,Dinner,Fast Food,Lunch","","","2019-07","POLYGON","""[\\""mcdonalds.com\\""]""","https://www.mcdonalds.com/ca/en-ca/location/40575.html"
"222-222@3wx-xt3-zcq","","Westside Massage Therapy","","","","Offices of Other Health Practitioners","Offices of Physical, Occupational and Speech Therapists, and Audiologists",621340.0,49.697312,-112.903181,"96 Aberdeen Rd W","Lethbridge","AB","T1J 5A5","CA",14037959594.0,"{ ""Mon"": [[""8:00"", ""21:00""]], ""Tue"": [[""8:00"", ""21:00""]], ""Wed"": [[""8:00"", ""21:00""]], ""Thu"": [[""8:00"", ""21:00""]], ""Fri"": [[""8:00"", ""21:00""]], ""Sat"": [[""11:00"", ""17:00""]], ""Sun"": [[""12:00"", ""21:00""]] }","Massage Therapy","","","2019-07","POLYGON","""[\\""westsidemassagetherapy.net\\""]""","http://www.westsidemassagetherapy.net/"
"222-222@3wy-dmd-tgk","","Wise Construction","","","","Residential Building Construction","Residential Remodelers",236118.0,48.924252,-115.114048,"1430 Iowa Flats Rd","Eureka","MT","59917","US",14068895515.0,"","Contractors","","","2019-07","POLYGON","""[]""",""
"222-222@3wy-sgq-75z","","CENEX","SG_BRAND_5956ce26fe2414b2","CENEX",12987.0,"Other Miscellaneous Manufacturing","",3399.0,48.57472,-113.013967,"99 Highway 464","Browning","MT","59417","US",14063384464.0,"{ ""Mon"": [[""0:00"", ""24:00""]], ""Tue"": [[""0:00"", ""24:00""]], ""Wed"": [[""0:00"", ""24:00""]], ""Thu"": [[""0:00"", ""24:00""]], ""Fri"": [[""0:00"", ""24:00""]], ""Sat"": [[""0:00"", ""24:00""]], ""Sun"": [[""0:00"", ""24:00""]] }","","","2023-12","2019-07","POLYGON","""[\\""cenex.com\\""]""",""
"222-222@3wz-4ds-tvz","zzw-222@3wz-4ds-wff","Cavalia's Odysseo","","","","Promoters of Performing Arts, Sports, and Similar Events","Promoters of Performing Arts, Sports, and Similar Events with Facilities",711310.0,51.084027,-114.225158,"9610 1 Ave SW","Calgary","AB","T3B 5T2","CA","","","","","","2019-07","POLYGON","""[]""",""
"222-222@3wz-4j9-swk","","Wild Rose Vacuum Services","","","","Waste Management and Remediation Services","",562.0,51.005495,-113.951821,"5572 53 Ave SE","Calgary","AB","T2C 5G8","CA",14039360004.0,"{ ""Mon"": [[""9:00"", ""17:00""]], ""Tue"": [[""9:00"", ""17:00""]], ""Wed"": [[""9:00"", ""17:00""]], ""Thu"": [[""9:00"", ""17:00""]], ""Fri"": [[""9:00"", ""17:00""]], ""Sat"": [], ""Sun"": [] }","Septic Services","","","2019-07","POLYGON","""[\\""wrenviro.ca\\""]""",""
"222-222@3wz-4jm-gp9","","Anita Jeanine Photography","","","","Other Professional, Scientific, and Technical Services","Photographic Services",54192.0,50.92213,-113.92502,"368 Copperpond Cir SE","Calgary","AB","T2Z 0W4","CA",14034000022.0,"{ ""Mon"": [], ""Tue"": [[""9:00"", ""21:00""]], ""Wed"": [[""9:00"", ""21:00""]], ""Thu"": [[""9:00"", ""21:00""]], ""Fri"": [[""9:00"", ""21:00""]], ""Sat"": [[""9:00"", ""21:00""]], ""Sun"": [] }","Photographer,Session Photography","","","2019-07","POLYGON","""[\\""anitajeanine.com\\""]""",""
"222-222@3wz-4jz-hkf","","Riki's Skin Care","","","","Personal Care Services","Hair, Nail, and Skin Care Services",81211.0,50.971885,-114.108915,"2105 90 Ave SW","Calgary","AB","T2V 0X5","CA",14032818301.0,"","","","","2019-07","POLYGON","""[]""",""
"222-222@3wz-4mm-jsq","","All Kind Door Services Ltd","","","","Machinery, Equipment, and Supplies Merchant Wholesalers","Service Establishment Equipment and Supplies Merchant Wholesalers",423850.0,51.023086,-114.026147,"1455 34 Ave SE","Calgary","AB","T2G 4Y1","CA",14032661411.0,"{ ""Mon"": [[""9:00"", ""17:00""]], ""Tue"": [[""9:00"", ""17:00""]], ""Wed"": [[""9:00"", ""17:00""]], ""Thu"": [[""9:00"", ""17:00""]], ""Fri"": [[""9:00"", ""17:00""]], ""Sat"": [], ""Sun"": [] }","","","","2019-07","POLYGON","""[\\""allkinddoorservices.com\\""]""","http://allkinddoorservices.com/"
"222-222@3wz-4mr-b8v","","Davidson Enman Lumber","","","","Other Specialty Trade Contractors","",2389.0,51.016168,-114.05524,"452 42 Ave SE","Calgary","AB","T2G 1Y5","CA",14032432566.0,"","Contractors","","","2019-07","POLYGON","""[]""",""
"222-222@3wz-4mt-59f","222-223@3wz-4mt-59f","Calgary Youth Curling Association","","","","Sporting Goods, Hobby, and Musical Instrument Stores","Sporting Goods Stores",451110.0,51.058576,-114.069796,"720 3 St NW","Calgary","AB","T2N 1N9","CA",14032382380.0,"","","","","2019-07","POLYGON","""[]""",""
"222-222@3wz-4mv-qxq","","Charm Cleaners","","","","Drycleaning and Laundry Services","Drycleaning and Laundry Services (except Coin-Operated)",812320.0,51.052917,-114.04089,"935 General Ave NE","Calgary","AB","T2E 9E1","CA",14034109045.0,"{ ""Mon"": [[""12:00"", ""18:00""]], ""Tue"": [[""12:00"", ""18:00""]], ""Wed"": [[""12:00"", ""18:00""]], ""Thu"": [[""12:00"", ""18:00""]], ""Fri"": [[""12:00"", ""18:00""]], ""Sat"": [[""11:00"", ""16:00""]], ""Sun"": [] }","","","","2019-07","POLYGON","""[]""",""
"222-222@3x2-6f6-z2k","","Electronics Unlimited","","","","Machinery, Equipment, and Supplies Merchant Wholesalers","",4238.0,50.69055,-120.358911,"417 Tranquille Rd","Kamloops","BC","V2B 3G9","CA",12505548000.0,"{ ""Mon"": [[""9:00"", ""17:00""]], ""Tue"": [[""9:00"", ""17:00""]], ""Wed"": [[""9:00"", ""17:00""]], ""Thu"": [[""9:00"", ""17:00""]], ""Fri"": [[""9:00"", ""17:00""]], ""Sat"": [], ""Sun"": [] }","","","2024-05","2019-07","POLYGON","""[]""",""
"222-222@3x2-6fd-4y9","zzw-222@3x2-6fd-2c5","Tiger Ramen","","","","Restaurants and Other Eating Places","Full-Service Restaurants",722511.0,50.665854,-120.350847,"310-1210 Summit Dr","Kamloops","BC","V2C 6M1","CA",17784716011.0,"{ ""Mon"": [], ""Tue"": [[""11:30"", ""15:30""]], ""Wed"": [[""11:30"", ""15:30""]], ""Thu"": [[""11:30"", ""15:30""], [""16:30"", ""20:00""]], ""Fri"": [[""11:30"", ""15:30""], [""16:30"", ""20:00""]], ""Sat"": [[""11:30"", ""15:30""]], ""Sun"": [] }","","","","2019-07","POLYGON","""[]""",""
"222-222@3x2-9d7-tsq","","Vernon Figure Skating Club","","","","Other Amusement and Recreation Industries","Fitness and Recreational Sports Centers",713940.0,50.270793,-119.278545,"3409 39 Ave","Vernon","BC","V1T 3E3","CA",12505428244.0,"","Amateur Sports Teams","","","2019-07","POLYGON","""[]""",""
"222-222@3x2-dbb-vmk","","My Health Club","","","","Other Amusement and Recreation Industries","Fitness and Recreational Sports Centers",713940.0,49.881722,-119.472715,"1254 Devonshire Ave","Kelowna","BC","V1Y 6B7","CA",12507637338.0,"","","","","2019-07","POLYGON","""[]""",""
"222-222@3x2-djz-j7q","","Oyama Lake Fishing Resort","","","","Traveler Accommodation","Hotels (except Casino Hotels) and Motels",721110.0,50.113409,-119.280014,"7425 Oyama Lake Rd","Lake Country","BC","V4V 2C9","CA",12508621013.0,"","","","","2019-07","POLYGON","""[]""",""
"222-222@3x2-w8k-kcq","","Subaru of Penticton","SG_BRAND_0b9c5120ea86155f02d81e6f2f90c900","Subaru",7659.0,"Automobile Dealers","New Car Dealers",441110.0,49.494396,-119.610851,"990 Eckhardt Ave W","Penticton","BC","V2A 2C1","CA",12507702002.0,"","","","","2019-07","POLYGON","""[\\""subaru.ca\\"",\\""subaruofpenticton.com\\""]""","http://www.subaruofpenticton.com"
"222-222@3x2-zqj-fpv","","Anna's Professional Piercing","","","","Personal Care Services","Hair, Nail, and Skin Care Services",81211.0,49.828973,-119.627113,"3710 Hoskins Rd","West Kelowna","BC","V4T 2H8","CA",12366682642.0,"","","","","2019-07","POLYGON","""[]""",""
"222-222@3x3-25r-m6k","","Herb Issler Ministries","","","","Religious Organizations","Religious Organizations",813110.0,49.864674,-119.547245,"2505 Hayman Rd","West Kelowna","BC","V1Z 2A2","CA",12507697382.0,"","Churches","","","2019-07","POLYGON","""[]""",""
"222-222@3x3-26q-kcq","","Straightline Exteriors","","","","Other Specialty Trade Contractors","",2389.0,49.840951,-119.670492,"3390 Gates Rd","Westbank","BC","V4T 1B3","CA",12507684136.0,"","Contractors,Hardware and Tools","","","2019-07","POLYGON","""[]""",""
"222-222@3x4-7p5-tjv","","American Legion Kaniksu Post 144","","","","Other Amusement and Recreation Industries","Fitness and Recreational Sports Centers",713940.0,48.861288,-117.370956,"220 E 4th Ave","Metaline Falls","WA","99153","US",15094464341.0,"","","","","2019-07","POLYGON","""[]""",""
"222-222@3x4-ktb-jn5","","Arden Ironworks","","","","Other Support Services","",5619.0,48.162154,-116.690785,"193 Peak View Dr","Sagle","ID","83860","US",12083046181.0,"","","","1900-01","2019-07","POLYGON","""[\\""ardenironworks.com\\""]""","http://ardenironworks.com"
"222-222@3x4-my4-975","","7B Boring","","","","Waste Management and Remediation Services","",562.0,48.249322,-116.312136,"226 W Main St","Hope","ID","83836","US",12087057786.0,"{ ""Mon"": [[""8:00"", ""17:00""]], ""Tue"": [[""8:00"", ""17:00""]], ""Wed"": [[""8:00"", ""17:00""]], ""Thu"": [[""8:00"", ""17:00""]], ""Fri"": [[""8:00"", ""17:00""]], ""Sat"": [], ""Sun"": [] }","Excavation,Hydro Jetting","","","2019-07","POLYGON","""[\\""7bboringllc.com\\""]""","http://7bboringllc.com"
"222-222@3x5-3gc-9vf","","Hunter Benefits Consulting Group","","","","Other Financial Investment Activities","Investment Advice",523930.0,47.718925,-117.436095,"6701 N Country Homes Blvd","Spokane","WA","99208","US",15094644015.0,"","Financial Advice","","","2019-07","POLYGON","""[\\""hunterbenefits.com\\""]""","http://www.hunterbenefits.com"
"222-222@3x5-44b-6c5","","Kindred Concierge","","","","Services to Buildings and Dwellings","",5617.0,47.655325,-116.916446,"2377 S Kindred Trl","Coeur D Alene","ID","83814","US",12086668888.0,"","Home Cleaning","","","2019-07","POLYGON","""[\\""kindredconcierge.com\\""]""","http://www.kindredconcierge.com"
"222-222@3x5-44s-dd9","","Liberty Mutual Insurance","SG_BRAND_e9ec1ccdd1fc27c6ebff4cc7930bc3b0","Liberty Mutual Insurance","","Insurance Carriers","Direct Property and Casualty Insurance Carriers",524126.0,47.672768,-117.084794,"24041 E Mission Ave","Liberty Lake","WA","99019","US",15099274655.0,"{ ""Mon"": [[""8:30"", ""17:00""]], ""Tue"": [[""8:30"", ""17:00""]], ""Wed"": [[""8:30"", ""17:00""]], ""Thu"": [[""8:30"", ""17:00""]], ""Fri"": [[""8:30"", ""17:00""]], ""Sat"": [], ""Sun"": [] }","","","","2019-07","POLYGON","""[\\""libertymutual.com\\""]""","https://www.comparioninsurance.com/insurance-agent/washington/liberty-lake-085h"
"222-222@3x5-4pc-wff","","Bo Apartments","","","","Lessors of Real Estate","Lessors of Residential Buildings and Dwellings",531110.0,47.699847,-116.827314,"3218 N Veneer Rd","Coeur D Alene","ID","83814","US","","","","","","2019-07","POLYGON","""[]""",""
"222-222@3x5-4pp-c89","","Heavenly Hands Reflexology & Natural Nail Boutique","","","","Personal Care Services","Hair, Nail, and Skin Care Services",81211.0,47.760261,-116.78705,"9751 N Government Way","Hayden","ID","83835","US",12086996213.0,"{ ""Mon"": [[""9:00"", ""17:00""]], ""Tue"": [[""9:00"", ""17:00""]], ""Wed"": [[""9:00"", ""17:00""]], ""Thu"": [[""9:00"", ""17:00""]], ""Fri"": [[""9:00"", ""17:00""]], ""Sat"": [[""10:00"", ""15:00""]], ""Sun"": [] }","Reflexology","","","2019-07","POLYGON","""[\\""soapinggrammy.com\\""]""",""
"222-222@3x5-4s4-qs5","","Broadway and Conklin Apartments","","","","Lessors of Real Estate","Lessors of Residential Buildings and Dwellings",531110.0,47.664062,-117.186314,"723 N Conklin Rd","Spokane Valley","WA","99037","US","","","","","","2019-07","POLYGON","""[]""",""
"222-222@3x5-4sw-qs5","","Hot Rod Vaporz","","","","Other Miscellaneous Store Retailers","Tobacco Stores",453991.0,47.668754,-117.239211,"1222 N Pines Rd","Spokane Valley","WA","99206","US",15092423374.0,"{ ""Mon"": [[""9:00"", ""19:00""]], ""Tue"": [[""9:00"", ""19:00""]], ""Wed"": [[""9:00"", ""19:00""]], ""Thu"": [[""9:00"", ""19:00""]], ""Fri"": [[""9:00"", ""21:00""]], ""Sat"": [], ""Sun"": [[""10:00"", ""17:00""]] }","Vape Shop","","1900-01","2019-07","POLYGON","""[]""",""
"222-222@3x5-4sz-r49","","Vehicle Licensing Office 7","","","","Administration of Economic Programs","Regulation and Administration of Transportation Programs",926120.0,47.657348,-117.278692,"9405 E Sprague Ave","Spokane Valley","WA","99206","US",15099287981.0,"{ ""Mon"": [[""9:00"", ""17:00""]], ""Tue"": [[""9:00"", ""17:00""]], ""Wed"": [[""9:00"", ""17:00""]], ""Thu"": [[""9:00"", ""17:00""]], ""Fri"": [[""9:00"", ""17:00""]], ""Sat"": [[""8:30"", ""13:30""]], ""Sun"": [] }","DMV","","","2019-07","POLYGON","""[]""",""
"222-222@3x5-6p2-kcq","","Condos at 3617 E 13th Ave","","","","Lessors of Real Estate","Lessors of Residential Buildings and Dwellings",531110.0,47.643881,-117.356949,"3617 E 13th Ave","Spokane","WA","99202","US","","","","","","2019-07","POLYGON","""[]""",""
"222-222@3x5-86w-6p9","","Bear Creek Lodge","","","","Restaurants and Other Eating Places","Full-Service Restaurants",722511.0,47.882452,-117.13528,"24817 N Mt Spokane Park Dr","Mead","WA","99021","US",15092389114.0,"{ ""Mon"": [], ""Tue"": [[""12:00"", ""19:00""]], ""Wed"": [[""12:00"", ""19:00""]], ""Thu"": [[""12:00"", ""19:00""]], ""Fri"": [[""12:00"", ""19:00""]], ""Sat"": [[""9:00"", ""20:00""]], ""Sun"": [[""9:00"", ""18:00""]] }","American Food","","","2019-07","POLYGON","""[\\""mtspokanesnowtubing.com\\"",\\""bearcreeklodgewa.com\\""]""","http://www.bearcreeklodgewa.com"
"222-222@3x5-9dq-k4v","","Kristin Kempff","","","","Offices of Physicians","Offices of Physicians, Mental Health Specialists",621112.0,48.280633,-117.722794,"601 W Lincoln Ave","Chewelah","WA","99109","US",15099988016.0,"","","","","2019-07","POLYGON","""[]""",""
"222-222@3x6-4mz-rp9","","Columbia Elementary","","","","Elementary and Secondary Schools","Elementary and Secondary Schools",611110.0,49.485884,-119.55687,"1437 Allison St","Penticton","BC","V2A 3X5","CA",12507707676.0,"","","","","2019-07","POLYGON","""[\\""sd67.bc.ca\\""]""",""
"222-222@3x6-4n2-3dv","","Peach City IT Services","","","","Waste Management and Remediation Services","",562.0,49.49353,-119.587566,"695 Van Horne St","Penticton","BC","V2A 4L2","CA",12504624700.0,"{ ""Mon"": [[""9:00"", ""17:00""]], ""Tue"": [[""9:00"", ""17:00""]], ""Wed"": [[""9:00"", ""17:00""]], ""Thu"": [[""9:00"", ""17:00""]], ""Fri"": [[""9:00"", ""17:00""]], ""Sat"": [], ""Sun"": [] }","","","","2019-07","POLYGON","""[\\""peachcityit.com\\""]""","http://www.peachcityit.com"
"222-222@3x6-rwq-9zz","","Western Durastill","","","","Restaurants and Other Eating Places","Snack and Nonalcoholic Beverage Bars",722515.0,53.561318,-113.9258,"80 Deer Park Blvd","Spruce Grove","AB","T7X 3K2","CA",17809600688.0,"","","","","2019-07","POLYGON","""[]""",""
"222-222@3x6-ry8-47q","","iCare Pharmacy","","","","Health and Personal Care Stores","Pharmacies and Drug Stores",446110.0,53.428899,-113.591017,"U 101-3514 Allan Dr SW","Edmonton","AB","T6W 3G9","CA",17807058871.0,"{ ""Mon"": [[""9:00"", ""17:00""]], ""Tue"": [[""9:00"", ""17:00""]], ""Wed"": [[""9:00"", ""17:00""]], ""Thu"": [[""9:00"", ""17:00""]], ""Fri"": [[""9:00"", ""17:00""]], ""Sat"": [], ""Sun"": [] }","","","","2019-07","POLYGON","""[\\""icarepharmacy.ca\\""]""","https://www.icarepharmacy.ca"
"222-222@3x6-s3b-w8v","","Albatross Roofing","","","","Building Finishing Contractors","",2383.0,53.405305,-113.801002,"11-51221 Range Road 265","Spruce Grove","AB","T7Y 1E7","CA",15879884645.0,"{ ""Mon"": [[""6:00"", ""23:00""]], ""Tue"": [[""6:00"", ""23:00""]], ""Wed"": [[""6:00"", ""23:00""]], ""Thu"": [[""6:00"", ""23:00""]], ""Fri"": [[""6:00"", ""23:00""]], ""Sat"": [[""6:00"", ""23:00""]], ""Sun"": [[""6:00"", ""23:00""]] }","Roofing","","","2019-07","POLYGON","""[\\""roofingalbatross.ca\\""]""",""
"222-222@3x6-sfm-w49","","24 7 WebTech","","","","Electronic and Precision Equipment Repair and Maintenance","Consumer Electronics Repair and Maintenance",811211.0,53.565679,-113.567469,"14304 115 Ave NW","Edmonton","AB","T5M 3B7","CA",17803282413.0,"","IT Services","","","2019-07","POLYGON","""[]""",""
"222-222@3x6-shc-w8v","","mdo OPTICIANS","","","","Offices of Other Health Practitioners","Offices of Optometrists",621320.0,53.620876,-113.61091,"255-140 St Albert Trail","St. Albert","AB","T8N 7C8","CA",17804594944.0,"{ ""Mon"": [[""10:00"", ""18:00""]], ""Tue"": [[""10:00"", ""18:00""]], ""Wed"": [[""10:00"", ""18:00""]], ""Thu"": [[""10:00"", ""19:00""]], ""Fri"": [[""10:00"", ""18:00""]], ""Sat"": [[""10:00"", ""16:00""]], ""Sun"": [] }","","","","2019-07","POLYGON","""[\\""mdoopticians.com\\""]""","https://mdoopticians.com"
"222-222@3x9-byq-3nq","zzw-222@3x9-byq-435","A 1 Canadian Pizza","","","","Restaurants and Other Eating Places","Full-Service Restaurants",722511.0,51.271586,-114.018008,"2002 Luxstone Blvd SW","Airdrie","AB","T4B 3K8","CA",14039481048.0,"","","","","2019-07","POLYGON","""[]""",""
"222-222@3x9-c78-p9z","","Foothill Tiles 1985","","","","Building Finishing Contractors","",2383.0,51.169077,-114.135255,"3507 Sage Hill Dr NW","Calgary","AB","T3R 1J1","CA",14032952184.0,"","Contractors,Flooring","","2022-11","2019-07","POLYGON","""[]""",""
"222-222@3x9-cch-dvz","","ActiveConversion","","","","Advertising, Public Relations, and Related Services","",5418.0,51.069603,-113.999445,"2891 Sunridge Way NE","Calgary","AB","T1Y 7K7","CA","","{ ""Mon"": [[""9:00"", ""18:00""]], ""Tue"": [[""9:00"", ""18:00""]], ""Wed"": [[""9:00"", ""18:00""]], ""Thu"": [[""9:00"", ""18:00""]], ""Fri"": [[""9:00"", ""18:00""]], ""Sat"": [], ""Sun"": [] }","Marketing,Web Design","","","2019-07","POLYGON","""[\\""activeconversion.com\\""]""",""
"222-222@3x9-ccs-tsq","","Recreation Displays","","","","Machinery, Equipment, and Supplies Merchant Wholesalers","",4238.0,51.101297,-114.073652,"539 Thorneycroft Dr NW","Calgary","AB","T2K 3K3","CA",14032741747.0,"","","","","2019-07","POLYGON","""[]""",""
"222-222@3x9-dgs-kcq","","Trophy Loft","","","","Management, Scientific, and Technical Consulting Services","",5416.0,52.300158,-113.810017,"1-7429 49 Ave","Red Deer","AB","T4P 1N2","CA",14033475030.0,"{ ""Mon"": [[""9:00"", ""17:30""]], ""Tue"": [[""9:00"", ""17:30""]], ""Wed"": [[""9:00"", ""17:30""]], ""Thu"": [[""9:00"", ""17:30""]], ""Fri"": [[""9:00"", ""17:30""]], ""Sat"": [], ""Sun"": [] }","","","","2019-07","POLYGON","""[\\""trophyloft.com\\""]""","http://www.trophyloft.com"
"222-222@3x9-dhc-8gk","","Golf Central Alberta","","","","Other Amusement and Recreation Industries","Golf Courses and Country Clubs",713910.0,52.254725,-113.767927,"23 Mclevin Cres","Red Deer","AB","T4R 1S8","CA",14033479759.0,"","Golf","","","2019-07","POLYGON","""[\\""golfcentralalberta.com\\""]""",""
"222-222@3x9-w5q-pjv","","Landmark Homes","","","","Other Specialty Trade Contractors","",2389.0,53.420403,-113.479141,"1103 95 St SW","Edmonton","AB","T6X 0P8","CA",17804365959.0,"{ ""Mon"": [[""8:00"", ""17:00""]], ""Tue"": [[""8:00"", ""17:00""]], ""Wed"": [[""8:00"", ""17:00""]], ""Thu"": [[""8:00"", ""17:00""]], ""Fri"": [[""8:00"", ""17:00""]], ""Sat"": [], ""Sun"": [] }","Contractors","","","2019-07","POLYGON","""[\\""landmarkgroup.ca\\""]""",""
"222-222@3x9-w5s-4d9","","Tober Hembling Callihoo Chartered Accountants","","","","Sporting Goods, Hobby, and Musical Instrument Stores","Sporting Goods Stores",451110.0,53.460158,-113.48322,"2959 Parsons Rd NW","Edmonton","AB","T6N 1A3","CA","","","","","","2019-07","POLYGON","""[]""",""
"222-222@3x9-wbk-z2k","","Mayer Energy Services Ltd","","","","Building Equipment Contractors","Plumbing, Heating, and Air-Conditioning Contractors",238220.0,53.271578,-113.579928,"307 Bridgeport Pl","Leduc","AB","T9E 0M2","CA",17803878049.0,"{ ""Mon"": [[""0:00"", ""24:00""]], ""Tue"": [[""0:00"", ""24:00""]], ""Wed"": [[""0:00"", ""24:00""]], ""Thu"": [[""0:00"", ""24:00""]], ""Fri"": [[""0:00"", ""24:00""]], ""Sat"": [[""0:00"", ""24:00""]], ""Sun"": [[""0:00"", ""24:00""]] }","","","","2019-07","POLYGON","""[]""",""
"222-222@3x9-wmd-9fz","","Camrose Community Connections","","","","General Merchandise Stores, including Warehouse Clubs and Supercenters","All Other General Merchandise Stores",452319.0,53.007187,-112.856267,"6703B Marler Dr","Camrose","AB","T4V 3R2","CA",17806720906.0,"","","","","2019-07","POLYGON","""[]""",""
"222-222@3x9-z59-3wk","","Forever Monuments","","","","Other Miscellaneous Store Retailers","All Other Miscellaneous Store Retailers (except Tobacco Stores)",453998.0,53.4903,-112.033072,"4217 51 Ave","Vegreville","AB","T9C 1C7","CA","","{ ""Mon"": [], ""Tue"": [[""9:00"", ""17:00""]], ""Wed"": [[""9:00"", ""17:00""]], ""Thu"": [[""9:00"", ""17:00""]], ""Fri"": [[""9:00"", ""17:00""]], ""Sat"": [[""9:00"", ""17:00""]], ""Sun"": [[""9:00"", ""12:00""]] }","","","","2019-07","POLYGON","""[\\""forevermonuments.com\\""]""","http://www.forevermonuments.com"
"222-222@3x9-zqf-c89","226-222@3x9-zqf-c89","Mark's","SG_BRAND_5a2acf84509c8955","Mark's",361.0,"Clothing Stores","Family Clothing Stores",448140.0,53.538706,-113.415869,"9857 50 St NW","Edmonton","AB","T6A 3X5","CA",17804901256.0,"{ ""Mon"": [[""9:00"", ""21:00""]], ""Tue"": [[""9:00"", ""21:00""]], ""Wed"": [[""9:00"", ""21:00""]], ""Thu"": [[""9:00"", ""21:00""]], ""Fri"": [[""9:00"", ""21:00""]], ""Sat"": [[""9:00"", ""18:00""]], ""Sun"": [[""9:00"", ""18:00""]] }","Accessories,Children's Clothing,Men's Clothing,Women's Clothing","","2023-08","2019-07","POLYGON","""[\\""marks.com\\""]""",""
"222-222@3x9-zr8-btv","","Condos at 11618 100 Ave NW","","","","Lessors of Real Estate","Lessors of Residential Buildings and Dwellings",531110.0,53.539253,-113.522421,"11618 100 Ave NW","Edmonton","AB","T5K 0J9","CA","","","","","","2019-07","POLYGON","""[]""",""
"222-222@3x9-zrg-t5f","","Cafe Amore Bistro","","","","Restaurants and Other Eating Places","Full-Service Restaurants",722511.0,53.549647,-113.506966,"10807 106 Ave NW","Edmonton","AB","T5H 4A7","CA",17804777896.0,"{ ""Mon"": [[""11:00"", ""22:00""]], ""Tue"": [[""11:00"", ""22:00""]], ""Wed"": [[""11:00"", ""22:00""]], ""Thu"": [[""11:00"", ""22:00""]], ""Fri"": [[""11:00"", ""23:00""]], ""Sat"": [[""17:00"", ""23:00""]], ""Sun"": [] }","","","","2019-07","POLYGON","""[\\""cafeamorebistro.com\\""]""","http://cafeamorebistro.com"
"222-222@3x9-zrq-q9f","","Leon's","SG_BRAND_385ca961d90b31f1","Leon's",11171918.0,"Furniture Stores","Furniture Stores",442110.0,53.488865,-113.416364,"4939 52 Ave NW","Edmonton","AB","T6B 3L5","CA",17804685511.0,"{ ""Mon"": [[""10:00"", ""20:00""]], ""Tue"": [[""10:00"", ""20:00""]], ""Wed"": [[""10:00"", ""20:00""]], ""Thu"": [[""10:00"", ""20:00""]], ""Fri"": [[""10:00"", ""20:00""]], ""Sat"": [[""10:00"", ""18:00""]], ""Sun"": [[""11:00"", ""17:00""]] }","Electronics,Furniture,Kitchen Supplies,Outdoor Furniture,Outlet Store","","","2019-07","POLYGON","""[\\""leons.ca\\""]""","https://www.leons.ca/pages/store-edmonton-south"
"222-222@3x9-zrr-y35","zzw-224@3x9-zrr-yd9","Creations Dining Room & Lounge","","","","Restaurants and Other Eating Places","Full-Service Restaurants",722511.0,53.478801,-113.49117,"4235 Gateway Blvd NW","Edmonton","AB","T6J 5H2","CA",17809894439.0,"{ ""Mon"": [[""6:30"", ""14:00""], [""17:30"", ""22:30""]], ""Tue"": [[""6:30"", ""14:00""], [""17:30"", ""22:30""]], ""Wed"": [[""6:30"", ""14:00""], [""17:30"", ""22:30""]], ""Thu"": [[""6:30"", ""14:00""], [""17:30"", ""22:30""]], ""Fri"": [[""6:30"", ""14:00""], [""17:30"", ""22:30""]], ""Sat"": [[""6:30"", ""14:00""], [""17:30"", ""22:30""]], ""Sun"": [[""10:30"", ""13:30""]] }","Late Night","","","2019-07","POLYGON","""[\\""sawridge.com\\""]""","http://www.sawridge.com/our-hotels/edmonton-south/dine-and-lounge/"
"222-222@3x9-zt2-jn5","","Dovercourt Baptist Church","","","","Religious Organizations","Religious Organizations",813110.0,53.576409,-113.557326,"12321 135 St NW","Edmonton","AB","T5L 1X6","CA",17804550246.0,"","","","","2019-07","POLYGON","""[]""",""
"222-222@3xb-dg5-zs5","","Kal Tire","SG_BRAND_bc93117372df62e","Kal Tire",92.0,"Automotive Parts, Accessories, and Tire Stores","Automotive Parts and Accessories Stores",441310.0,52.315079,-113.811622,"8050 49 Ave","Red Deer","AB","T4P 2V7","CA",14033478851.0,"{ ""Mon"": [[""8:00"", ""17:00""]], ""Tue"": [[""8:00"", ""17:00""]], ""Wed"": [[""8:00"", ""17:00""]], ""Thu"": [[""8:00"", ""17:00""]], ""Fri"": [[""8:00"", ""17:00""]], ""Sat"": [[""8:00"", ""17:00""]], ""Sun"": [] }","Auto Repair,Oil Changes,Tires","","","2019-07","POLYGON","""[\\""kaltire.com\\""]""",""
"222-222@3xb-g95-jsq","","Freedom 55 Financial","","","","Agencies, Brokerages, and Other Insurance Related Activities","Insurance Agencies and Brokerages",524210.0,52.304505,-114.095127,"4820 47 Ave","Sylvan Lake","AB","T4S 1P2","CA",14038876046.0,"","","","","2019-07","POLYGON","""[]""",""
"222-222@3xb-kpf-f9f","","Guardian and I.D.A. Pharmacy","SG_BRAND_10a9215a7d097f42","Guardian and I.D.A. Pharmacy",7011512.0,"Health and Personal Care Stores","Pharmacies and Drug Stores",446110.0,53.109503,-114.473204,"5031 50th Ave","Breton","AB","T0C 0P0","CA",17806963594.0,"{ ""Mon"": [[""9:00"", ""18:00""]], ""Tue"": [[""9:00"", ""18:00""]], ""Wed"": [[""9:00"", ""18:00""]], ""Thu"": [[""9:00"", ""18:00""]], ""Fri"": [[""9:00"", ""18:00""]], ""Sat"": [[""10:00"", ""16:00""]], ""Sun"": [] }","Convenience Store,Cosmetics,Diagnostic Services,Medical Supplies,Vitamins and Supplements","","","2021-07","POLYGON","""[\\""guardian-ida-remedysrx.ca\\""]""","https://www.guardian-ida-pharmacies.ca/en/alberta/breton/breton-pharmacy-7011512"
"222-222@3xd-sqy-4y9","222-226@3xd-sqy-4y9","Real Canadian Superstore","SG_BRAND_70a9567c853bfe0e","Real Canadian Superstore","","Grocery Stores","Supermarkets and Other Grocery (except Convenience) Stores",445110.0,53.887276,-122.768963,"2155 Ferry Ave","Prince George","BC","V2N 5E8","CA",12509601327.0,"{ ""Mon"": [[""7:00"", ""22:00""]], ""Tue"": [[""7:00"", ""22:00""]], ""Wed"": [[""7:00"", ""22:00""]], ""Thu"": [[""7:00"", ""22:00""]], ""Fri"": [[""7:00"", ""22:00""]], ""Sat"": [[""7:00"", ""22:00""]], ""Sun"": [[""7:00"", ""22:00""]] }","Discount Store,Healthy Food,Meats,Sandwich Shop,Seafood","","","2019-07","POLYGON","""[\\""realcanadiansuperstore.ca\\""]""","https://www.realcanadiansuperstore.ca/store-locator/details/1562"
"222-222@3z3-cw5-v75","","Perseverance Trail","","","","Amusement Parks and Arcades","Amusement and Theme Parks",713110.0,58.315019,-134.365468,"1050 Harbor Way","Juneau","AK","99801","US","","","","","","2019-07","POLYGON","""[]""",""
"222-222@4dp-ft4-zs5","","Seafront Systems","","","","Department Stores","",4522.0,52.002084,-4.992444,"Seafront Garage","Goodwick","Dyfed","sa64 0de","GB",441348871876.0,"","","","","","POLYGON","""[]""",""
"222-222@4dp-g6p-yqf","","St Davids Escape Room","","","","Other Amusement and Recreation Industries","All Other Amusement and Recreation Industries",713990.0,51.913836,-5.220795,"East Farm","Haverfordwest","Dyfed","SA62 6DE","GB",447933011615.0,"","","","","","POLYGON","""[\\""stdavidsescaperoom.com\\""]""",""
"222-222@4fc-9t5-h5z","","Porthmellin Cafe","","","","Restaurants and Other Eating Places","Snack and Nonalcoholic Beverage Bars",722515.0,50.015299,-5.258301,"""Tr12 7Es, Gb""","","Cornwall","TR12 7ES","GB",441326240941.0,"","","","","","POLYGON","""[\\""edan.io\\""]""",""
"222-222@4fd-9w7-btv","","Gulls Way holiday apartment Falmouth","","","","Traveler Accommodation","Hotels (except Casino Hotels) and Motels",721110.0,50.157956,-5.072907,"61 High Street","Falmouth","Cornwall","TR11 2UH","GB",447969742110.0,"","","","","","POLYGON","""[\\""gullswayfalmouth.co.uk\\""]""",""
"222-222@4fd-crt-47q","","POD Point Charging Station","","","","Gasoline Stations","Other Gasoline Stations",447190.0,50.416135,-4.127263,"215 Tavistock Road Windsor House","Plymouth","Devon","PL6 5UF","GB","","","","","","","POINT","""[]""",""
"222-222@4fd-ctq-b8v","","Brian Coad","","","","Beer, Wine, and Liquor Stores","",4453.0,50.388908,-4.069316,"41B Valley Road","Plymouth","Devon","PL7 1RF","GB",441752334970.0,"","Alcoholic Beverages","","","","POLYGON","""[]""",""
"222-222@4gv-vv9-ct9","","Raphael Glenroy","","","","Personal Care Services","",8121.0,55.896747,-4.357508,"166 Archerhill Road","Glasgow","City of Glasgow","G13 3JG","GB",441419547193.0,"","Hair Salon","","","","POLYGON","""[]""",""
"222-222@4gv-wmy-wff","","Feochan Mhor Smokehouse","","","","Restaurants and Other Eating Places","",7225.0,56.372011,-5.434915,"Kilmore House","Oban","Argyll and Bute","PA34 4XT","GB",441631770670.0,"","BBQ and Southern Food","","","","POLYGON","""[]""",""
"222-222@4h7-8yk-35z","","Moray Firth Motors","","","","Automotive Repair and Maintenance","",8111.0,57.485703,-4.214831,"32 Harbour Road","Inverness","Inverness","IV1 1UF","GB","","","Auto Repair","","","","POLYGON","""[\\""pages-uk.com\\""]""",""
"222-222@4hf-9pn-mrk","","Trudis Beauty Room","","","","Personal Care Services","Hair, Nail, and Skin Care Services",81211.0,52.653446,1.206792,"51 Longwater Lane","Norwich","Norfolk","NR5 0TB","GB",447946538257.0,"","","","","","POLYGON","""[\\""trudis.co.uk\\""]""",""
"222-222@4hf-bby-fmk","","Hill Farm CL site And Holiday Lets","","","","Restaurants and Other Eating Places","Snack and Nonalcoholic Beverage Bars",722515.0,52.284774,1.539983,"Lymballs Lane Hill Farm","Saxmundham","Suffolk","IP17 3QH","GB",447949949480.0,"","","","","","POLYGON","""[\\""hillfarmclsite.co.uk\\""]""",""
"222-222@4hf-chb-5xq","","Cheney Hollow","","","","Traveler Accommodation","Hotels (except Casino Hotels) and Motels",721110.0,52.904094,0.489205,"3 Cheney Hill Cheney Hollow","King's Lynn","Norfolk","PE31 7BX","GB",441485572625.0,"","","","","","POLYGON","""[]""",""
"222-222@4hf-dt7-2rk","","S W & R Howard","","","","Building Finishing Contractors","",2383.0,52.550823,1.013328,"Half Field Lane Four Seasons","Wymondham","Norfolk","NR18 9DJ","GB","","","Contractors","","","","POLYGON","""[]""",""
"222-222@4hf-k2z-mzf","","Century Park Networkcentre","","","","Warehousing and Storage","General Warehousing and Storage",493110.0,53.513864,-1.365191,"Dearne Lane Century Park Network Centre","Rotherham","South Yorkshire","S63 5DE","GB",441512420911.0,"{ ""Mon"": [[""9:00"", ""17:00""]], ""Tue"": [[""9:00"", ""17:00""]], ""Wed"": [[""9:00"", ""17:00""]], ""Thu"": [[""9:00"", ""17:00""]], ""Fri"": [[""9:00"", ""17:00""]], ""Sat"": [], ""Sun"": [] }","","","","","POLYGON","""[]""",""
"222-222@4hf-kb2-4qf","","A Shaw","","","","Building Finishing Contractors","",2383.0,53.527812,-1.625452,"33 Tennyson Close","Sheffield","South Yorkshire","S36 6GY","GB","","","Contractors","","","","POLYGON","""[]""",""
"222-222@4hf-knz-fzz","","S & J Day Haulage","","","","Warehousing and Storage","General Warehousing and Storage",493110.0,53.538976,-1.180807,"32 Barnsley Road","Doncaster","South Yorkshire","DN5 8QJ","GB",441302782591.0,"","","","","","POLYGON","""[]""",""
"222-222@4hf-m28-k75","","Stringfellow Construction","","","","Building Finishing Contractors","",2383.0,53.167351,-1.184011,"5 Salisbury Close","Mansfield","Nottinghamshire","NG19 8JS","GB","","","Contractors","","","","POLYGON","""[]""",""
